{
  "type": "FeatureCollection",
  "features": [
    {
      "type": "Feature",
      "properties": {
        "norad_id": 66837,
        "name": "STARLINK-35729",
        "group": "last-30-days",
        "lat": -58.02660639659539,
        "lon": 156.8379357235715,
        "alt_km": 358.15016383736383,
        "timestamp": "2025-12-14T22:38:39.518642+00:00",
        "meta_object_name": "STARLINK-35729",
        "meta_object_id": "2025-280S",
        "meta_epoch": "2025-12-14T06:00:02.999808",
        "meta_mean_motion": 15.74332384,
        "meta_eccentricity": 0.00037124,
        "meta_inclination": 69.9937,
        "meta_ra_of_asc_node": 194.5074,
        "meta_arg_of_pericenter": 271.7203,
        "meta_mean_anomaly": 57.8038,
        "meta_ephemeris_type": 0,
        "meta_classification_type": "U",
        "meta_norad_cat_id": 66837,
        "meta_element_set_no": 999,
        "meta_rev_at_epoch": 314,
        "meta_bstar": -0.013140931,
        "meta_mean_motion_dot": -0.0168616,
        "meta_mean_motion_ddot": 0,
        "tle_line1": "1 66837U 25280S   25348.25003472 -.01686160  00000+0 -13141-1 0  9992",
        "tle_line2": "2 66837  69.9937 194.5074 0003712 271.7203  57.8038 15.74332384  3149"
      },
      "geometry": {
        "type": "Point",
        "coordinates": [
          156.8379357235715,
          -58.02660639659539
        ]
      }
    },
    {
      "type": "Feature",
      "properties": {
        "norad_id": 66838,
        "name": "STARLINK-35886",
        "group": "last-30-days",
        "lat": -55.038245681866236,
        "lon": 161.13760767200932,
        "alt_km": 358.21241139947324,
        "timestamp": "2025-12-14T22:38:39.518654+00:00",
        "meta_object_name": "STARLINK-35886",
        "meta_object_id": "2025-280T",
        "meta_epoch": "2025-12-14T06:00:02.999808",
        "meta_mean_motion": 15.74289701,
        "meta_eccentricity": 0.00036466,
        "meta_inclination": 69.9933,
        "meta_ra_of_asc_node": 194.5026,
        "meta_arg_of_pericenter": 271.7546,
        "meta_mean_anomaly": 61.6488,
        "meta_ephemeris_type": 0,
        "meta_classification_type": "U",
        "meta_norad_cat_id": 66838,
        "meta_element_set_no": 999,
        "meta_rev_at_epoch": 314,
        "meta_bstar": -0.012961294,
        "meta_mean_motion_dot": -0.01662909,
        "meta_mean_motion_ddot": 0,
        "tle_line1": "1 66838U 25280T   25348.25003472 -.01662909  00000+0 -12961-1 0  9997",
        "tle_line2": "2 66838  69.9933 194.5026 0003646 271.7546  61.6488 15.74289701  3145"
      },
      "geometry": {
        "type": "Point",
        "coordinates": [
          161.13760767200932,
          -55.038245681866236
        ]
      }
    },
    {
      "type": "Feature",
      "properties": {
        "norad_id": 66839,
        "name": "STARLINK-35717",
        "group": "last-30-days",
        "lat": -56.56465946548442,
        "lon": 159.0529902146896,
        "alt_km": 358.19514708632596,
        "timestamp": "2025-12-14T22:38:39.518664+00:00",
        "meta_object_name": "STARLINK-35717",
        "meta_object_id": "2025-280U",
        "meta_epoch": "2025-12-14T06:00:02.999808",
        "meta_mean_motion": 15.74339325,
        "meta_eccentricity": 0.00038291,
        "meta_inclination": 69.9936,
        "meta_ra_of_asc_node": 194.5047,
        "meta_arg_of_pericenter": 270.3102,
        "meta_mean_anomaly": 61.1332,
        "meta_ephemeris_type": 0,
        "meta_classification_type": "U",
        "meta_norad_cat_id": 66839,
        "meta_element_set_no": 999,
        "meta_rev_at_epoch": 314,
        "meta_bstar": -0.013331519,
        "meta_mean_motion_dot": -0.01708349,
        "meta_mean_motion_ddot": 0,
        "tle_line1": "1 66839U 25280U   25348.25003472 -.01708349  00000+0 -13332-1 0  9990",
        "tle_line2": "2 66839  69.9936 194.5047 0003829 270.3102  61.1332 15.74339325  3149"
      },
      "geometry": {
        "type": "Point",
        "coordinates": [
          159.0529902146896,
          -56.56465946548442
        ]
      }
    },
    {
      "type": "Feature",
      "properties": {
        "norad_id": 66840,
        "name": "STARLINK-35837",
        "group": "last-30-days",
        "lat": -53.48662769704572,
        "lon": 163.06024318941843,
        "alt_km": 358.1785832386022,
        "timestamp": "2025-12-14T22:38:39.518673+00:00",
        "meta_object_name": "STARLINK-35837",
        "meta_object_id": "2025-280V",
        "meta_epoch": "2025-12-14T06:00:02.999808",
        "meta_mean_motion": 15.7425376,
        "meta_eccentricity": 0.00036303,
        "meta_inclination": 69.994,
        "meta_ra_of_asc_node": 194.5007,
        "meta_arg_of_pericenter": 272.2901,
        "meta_mean_anomaly": 63.0622,
        "meta_ephemeris_type": 0,
        "meta_classification_type": "U",
        "meta_norad_cat_id": 66840,
        "meta_element_set_no": 999,
        "meta_rev_at_epoch": 314,
        "meta_bstar": -0.012725154,
        "meta_mean_motion_dot": -0.01633674,
        "meta_mean_motion_ddot": 0,
        "tle_line1": "1 66840U 25280V   25348.25003472 -.01633674  00000+0 -12725-1 0  9995",
        "tle_line2": "2 66840  69.9940 194.5007 0003630 272.2901  63.0622 15.74253760  3141"
      },
      "geometry": {
        "type": "Point",
        "coordinates": [
          163.06024318941843,
          -53.48662769704572
        ]
      }
    },
    {
      "type": "Feature",
      "properties": {
        "norad_id": 66841,
        "name": "STARLINK-35715",
        "group": "last-30-days",
        "lat": -51.908407299376364,
        "lon": 164.84153248701008,
        "alt_km": 358.2165766292419,
        "timestamp": "2025-12-14T22:38:39.518683+00:00",
        "meta_object_name": "STARLINK-35715",
        "meta_object_id": "2025-280W",
        "meta_epoch": "2025-12-14T06:00:02.999808",
        "meta_mean_motion": 15.74213035,
        "meta_eccentricity": 0.00035769,
        "meta_inclination": 69.9939,
        "meta_ra_of_asc_node": 194.4982,
        "meta_arg_of_pericenter": 271.1445,
        "meta_mean_anomaly": 66.1643,
        "meta_ephemeris_type": 0,
        "meta_classification_type": "U",
        "meta_norad_cat_id": 66841,
        "meta_element_set_no": 999,
        "meta_rev_at_epoch": 314,
        "meta_bstar": -0.012489855,
        "meta_mean_motion_dot": -0.01573757,
        "meta_mean_motion_ddot": 0,
        "tle_line1": "1 66841U 25280W   25348.25003472 -.01573757  00000+0 -12490-1 0  9990",
        "tle_line2": "2 66841  69.9939 194.4982 0003576 271.1445  66.1643 15.74213035  3149"
      },
      "geometry": {
        "type": "Point",
        "coordinates": [
          164.84153248701008,
          -51.908407299376364
        ]
      }
    },
    {
      "type": "Feature",
      "properties": {
        "norad_id": 66842,
        "name": "STARLINK-35769",
        "group": "last-30-days",
        "lat": -50.30603350601724,
        "lon": 166.5005056763246,
        "alt_km": 358.25713828747666,
        "timestamp": "2025-12-14T22:38:39.518692+00:00",
        "meta_object_name": "STARLINK-35769",
        "meta_object_id": "2025-280X",
        "meta_epoch": "2025-12-14T06:00:02.999808",
        "meta_mean_motion": 15.74206936,
        "meta_eccentricity": 0.00035635,
        "meta_inclination": 69.994,
        "meta_ra_of_asc_node": 194.4961,
        "meta_arg_of_pericenter": 270.08,
        "meta_mean_anomaly": 69.1534,
        "meta_ephemeris_type": 0,
        "meta_classification_type": "U",
        "meta_norad_cat_id": 66842,
        "meta_element_set_no": 999,
        "meta_rev_at_epoch": 314,
        "meta_bstar": -0.012474752,
        "meta_mean_motion_dot": -0.01571721,
        "meta_mean_motion_ddot": 0,
        "tle_line1": "1 66842U 25280X   25348.25003472 -.01571721  00000+0 -12475-1 0  9993",
        "tle_line2": "2 66842  69.9940 194.4961 0003563 270.0800  69.1534 15.74206936  3142"
      },
      "geometry": {
        "type": "Point",
        "coordinates": [
          166.5005056763246,
          -50.30603350601724
        ]
      }
    },
    {
      "type": "Feature",
      "properties": {
        "norad_id": 66843,
        "name": "STARLINK-35997",
        "group": "last-30-days",
        "lat": -47.10134450947976,
        "lon": 169.44575845863852,
        "alt_km": 358.49525068199546,
        "timestamp": "2025-12-14T22:38:39.518702+00:00",
        "meta_object_name": "STARLINK-35997",
        "meta_object_id": "2025-280Y",
        "meta_epoch": "2025-12-14T06:00:02.999808",
        "meta_mean_motion": 15.74163297,
        "meta_eccentricity": 0.00034583,
        "meta_inclination": 69.9932,
        "meta_ra_of_asc_node": 194.4906,
        "meta_arg_of_pericenter": 270.0341,
        "meta_mean_anomaly": 73.0902,
        "meta_ephemeris_type": 0,
        "meta_classification_type": "U",
        "meta_norad_cat_id": 66843,
        "meta_element_set_no": 999,
        "meta_rev_at_epoch": 314,
        "meta_bstar": -0.012616916,
        "meta_mean_motion_dot": -0.01615483,
        "meta_mean_motion_ddot": 0,
        "tle_line1": "1 66843U 25280Y   25348.25003472 -.01615483  00000+0 -12617-1 0  9996",
        "tle_line2": "2 66843  69.9932 194.4906 0003458 270.0341  73.0902 15.74163297  3141"
      },
      "geometry": {
        "type": "Point",
        "coordinates": [
          169.44575845863852,
          -47.10134450947976
        ]
      }
    }
  ]
}